{
  "type": "FeatureCollection",
  "features": [
    {
      "type": "Feature",
      "properties": {
        "norad_id": 41556,
        "name": "ZIYUAN 3-2 (ZY 3-2)",
        "group": "resource",
        "lat": 24.170948072425066,
        "lon": 60.71648722496594,
        "alt_km": 507.9864940791331,
        "timestamp": "2025-12-15T22:44:28.580763+00:00",
        "meta_object_name": "ZIYUAN 3-2 (ZY 3-2)",
        "meta_object_id": "2016-033A",
        "meta_epoch": "2025-12-15T08:25:44.616576",
        "meta_mean_motion": 15.21544526,
        "meta_eccentricity": 0.00126227,
        "meta_inclination": 97.4045,
        "meta_ra_of_asc_node": 63.4759,
        "meta_arg_of_pericenter": 238.9431,
        "meta_mean_anomaly": 121.0567,
        "meta_ephemeris_type": 0,
        "meta_classification_type": "U",
        "meta_norad_cat_id": 41556,
        "meta_element_set_no": 999,
        "meta_rev_at_epoch": 53003,
        "meta_bstar": 0.00026249288,
        "meta_mean_motion_dot": 5.857e-05,
        "meta_mean_motion_ddot": 0,
        "tle_line1": "1 41556U 16033A   25349.35121084  .00005857  00000+0  26249-3 0  9991",
        "tle_line2": "2 41556  97.4045  63.4759 0012622 238.9431 121.0567 15.21544526530037"
      },
      "geometry": {
        "type": "Point",
        "coordinates": [
          60.71648722496594,
          24.170948072425066
        ]
      }
    },
    {
      "type": "Feature",
      "properties": {
        "norad_id": 41599,
        "name": "CARTOSAT-2C",
        "group": "resource",
        "lat": -56.603902574762856,
        "lon": 58.656386702881086,
        "alt_km": 517.6891432061639,
        "timestamp": "2025-12-15T22:44:28.580773+00:00",
        "meta_object_name": "CARTOSAT-2C",
        "meta_object_id": "2016-040A",
        "meta_epoch": "2025-12-15T07:11:12.442848",
        "meta_mean_motion": 15.19327812,
        "meta_eccentricity": 0.00106472,
        "meta_inclination": 97.477,
        "meta_ra_of_asc_node": 46.524,
        "meta_arg_of_pericenter": 56.8836,
        "meta_mean_anomaly": 303.3419,
        "meta_ephemeris_type": 0,
        "meta_classification_type": "U",
        "meta_norad_cat_id": 41599,
        "meta_element_set_no": 999,
        "meta_rev_at_epoch": 52579,
        "meta_bstar": 0.0002625992,
        "meta_mean_motion_dot": 5.486e-05,
        "meta_mean_motion_ddot": 0,
        "tle_line1": "1 41599U 16040A   25349.29944957  .00005486  00000+0  26260-3 0  9992",
        "tle_line2": "2 41599  97.4770  46.5240 0010647  56.8836 303.3419 15.19327812525799"
      },
      "geometry": {
        "type": "Point",
        "coordinates": [
          58.656386702881086,
          -56.603902574762856
        ]
      }
    },
    {
      "type": "Feature",
      "properties": {
        "norad_id": 41601,
        "name": "SKYSAT-C1",
        "group": "resource",
        "lat": 28.324792878116508,
        "lon": -149.4312974010847,
        "alt_km": 467.95428967944645,
        "timestamp": "2025-12-15T22:44:28.580784+00:00",
        "meta_object_name": "SKYSAT-C1",
        "meta_object_id": "2016-040C",
        "meta_epoch": "2025-12-15T01:42:46.396512",
        "meta_mean_motion": 15.32637767,
        "meta_eccentricity": 0.00021085,
        "meta_inclination": 96.9828,
        "meta_ra_of_asc_node": 25.9538,
        "meta_arg_of_pericenter": 8.6555,
        "meta_mean_anomaly": 351.4724,
        "meta_ephemeris_type": 0,
        "meta_classification_type": "U",
        "meta_norad_cat_id": 41601,
        "meta_element_set_no": 999,
        "meta_rev_at_epoch": 52963,
        "meta_bstar": 0.00021278585,
        "meta_mean_motion_dot": 6.635e-05,
        "meta_mean_motion_ddot": 0,
        "tle_line1": "1 41601U 16040C   25349.07137033  .00006635  00000+0  21279-3 0  9993",
        "tle_line2": "2 41601  96.9828  25.9538 0002108   8.6555 351.4724 15.32637767529636"
      },
      "geometry": {
        "type": "Point",
        "coordinates": [
          -149.4312974010847,
          28.324792878116508
        ]
      }
    },
    {
      "type": "Feature",
      "properties": {
        "norad_id": 41603,
        "name": "LAPAN-A3",
        "group": "resource",
        "lat": -75.34381616577825,
        "lon": 16.040459437459198,
        "alt_km": 473.4361801827845,
        "timestamp": "2025-12-15T22:44:28.580796+00:00",
        "meta_object_name": "LAPAN-A3",
        "meta_object_id": "2016-040E",
        "meta_epoch": "2025-12-15T05:49:44.061312",
        "meta_mean_motion": 15.31574336,
        "meta_eccentricity": 0.00093706,
        "meta_inclination": 97.1428,
        "meta_ra_of_asc_node": 346.7083,
        "meta_arg_of_pericenter": 324.0598,
        "meta_mean_anomaly": 36.0013,
        "meta_ephemeris_type": 0,
        "meta_classification_type": "U",
        "meta_norad_cat_id": 41603,
        "meta_element_set_no": 999,
        "meta_rev_at_epoch": 52664,
        "meta_bstar": 0.00011613473,
        "meta_mean_motion_dot": 3.47e-05,
        "meta_mean_motion_ddot": 0,
        "tle_line1": "1 41603U 16040E   25349.24287108  .00003470  00000+0  11613-3 0  9998",
        "tle_line2": "2 41603  97.1428 346.7083 0009370 324.0598  36.0013 15.31574336526642"
      },
      "geometry": {
        "type": "Point",
        "coordinates": [
          16.040459437459198,
          -75.34381616577825
        ]
      }
    },
    {
      "type": "Feature",
      "properties": {
        "norad_id": 41604,
        "name": "BIROS",
        "group": "resource",
        "lat": 63.20572897113668,
        "lon": 7.288823176194386,
        "alt_km": 293.02669801133106,
        "timestamp": "2025-12-15T22:44:28.580807+00:00",
        "meta_object_name": "BIROS",
        "meta_object_id": "2016-040F",
        "meta_epoch": "2025-12-15T01:20:12.221664",
        "meta_mean_motion": 15.90659584,
        "meta_eccentricity": 0.00036552,
        "meta_inclination": 97.068,
        "meta_ra_of_asc_node": 20.5828,
        "meta_arg_of_pericenter": 143.3286,
        "meta_mean_anomaly": 216.8239,
        "meta_ephemeris_type": 0,
        "meta_classification_type": "U",
        "meta_norad_cat_id": 41604,
        "meta_element_set_no": 999,
        "meta_rev_at_epoch": 52909,
        "meta_bstar": 0.00047663709,
        "meta_mean_motion_dot": 0.00145956,
        "meta_mean_motion_ddot": 9.714412e-06,
        "tle_line1": "1 41604U 16040F   25349.05569701  .00145956  97144-5  47664-3 0  9992",
        "tle_line2": "2 41604  97.0680  20.5828 0003655 143.3286 216.8239 15.90659584529096"
      },
      "geometry": {
        "type": "Point",
        "coordinates": [
          7.288823176194386,
          63.20572897113668
        ]
      }
    },
    {
      "type": "Feature",
      "properties": {
        "norad_id": 41727,
        "name": "GAOFEN-3",
        "group": "resource",
        "lat": 68.1750011210675,
        "lon": -162.85086374192358,
        "alt_km": 743.944691566152,
        "timestamp": "2025-12-15T22:44:28.580817+00:00",
        "meta_object_name": "GAOFEN-3",
        "meta_object_id": "2016-049A",
        "meta_epoch": "2025-12-15T07:14:48.085152",
        "meta_mean_motion": 14.42214351,
        "meta_eccentricity": 0.00013611,
        "meta_inclination": 98.4043,
        "meta_ra_of_asc_node": 354.8496,
        "meta_arg_of_pericenter": 60.1676,
        "meta_mean_anomaly": 299.9649,
        "meta_ephemeris_type": 0,
        "meta_classification_type": "U",
        "meta_norad_cat_id": 41727,
        "meta_element_set_no": 999,
        "meta_rev_at_epoch": 49214,
        "meta_bstar": 2.9617431e-05,
        "meta_mean_motion_dot": 5.4e-07,
        "meta_mean_motion_ddot": 0,
        "tle_line1": "1 41727U 16049A   25349.30194543  .00000054  00000+0  29617-4 0  9990",
        "tle_line2": "2 41727  98.4043 354.8496 0001361  60.1676 299.9649 14.42214351492142"
      },
      "geometry": {
        "type": "Point",
        "coordinates": [
          -162.85086374192358,
          68.1750011210675
        ]
      }
    },
    {
      "type": "Feature",
      "properties": {
        "norad_id": 41771,
        "name": "SKYSAT-C4",
        "group": "resource",
        "lat": -18.12340189874107,
        "lon": -167.30454687332139,
        "alt_km": 443.8842117271415,
        "timestamp": "2025-12-15T22:44:28.580828+00:00",
        "meta_object_name": "SKYSAT-C4",
        "meta_object_id": "2016-058B",
        "meta_epoch": "2025-12-15T07:52:15.572064",
        "meta_mean_motion": 15.42330027,
        "meta_eccentricity": 0.00017432,
        "meta_inclination": 96.9376,
        "meta_ra_of_asc_node": 14.3899,
        "meta_arg_of_pericenter": 133.027,
        "meta_mean_anomaly": 227.1125,
        "meta_ephemeris_type": 0,
        "meta_classification_type": "U",
        "meta_norad_cat_id": 41771,
        "meta_element_set_no": 999,
        "meta_rev_at_epoch": 51707,
        "meta_bstar": 0.00025732437,
        "meta_mean_motion_dot": 0.00011013,
        "meta_mean_motion_ddot": 0,
        "tle_line1": "1 41771U 16058B   25349.32795801  .00011013  00000+0  25732-3 0  9995",
        "tle_line2": "2 41771  96.9376  14.3899 0001743 133.0270 227.1125 15.42330027517074"
      },
      "geometry": {
        "type": "Point",
        "coordinates": [
          -167.30454687332139,
          -18.12340189874107
        ]
      }
    }
  ]
}